SL-16 R/B               
1 22566U 93016B   26048.00079995 -.00000227  00000+0 -91830-4 0  9996
2 22566  71.0046 258.6358 0010517 342.3613  17.7143 14.15300761699245
COSMOS 2242             
1 22626U 93024A   26048.10863607  .00002120  00000+0  18403-3 0  9990
2 22626  82.5178 286.4036 0016979  19.6328 340.5544 14.96464022777319
SL-16 R/B               
1 22803U 93059B   26048.43181220 -.00000143  00000+0 -47130-4 0  9990
2 22803  70.9891  53.8463 0019328 244.4621 115.4505 14.17227592676668
ARIANE 40 R/B           
1 22830U 93061H   26048.16833381  .00000228  00000+0  99279-4 0  9998
2 22830  98.4961 117.4564 0010262 351.2636   8.8368 14.32849831691168
COSMOS 2278             
1 23087U 94023A   26048.51211346  .00000165  00000+0  11095-3 0  9991
2 23087  71.0506 217.3107 0007029  53.2499 306.9268 14.14364721641954
SL-16 R/B               
1 23088U 94023B   26048.49704250  .00000361  00000+0  21093-3 0  9997
2 23088  70.9993 113.2970 0004775 304.8115  55.2557 14.15008032643239
SL-16 R/B               
1 23343U 94074B   26048.08899627  .00000576  00000+0  83849-4 0  9991
2 23343  97.7137  79.7384 0005176 293.5892  86.9807 14.79383204684205
SL-16 R/B               
1 23405U 94077B   26048.41586141  .00000249  00000+0  15192-3 0  9996
2 23405  70.9830  35.1396 0003950 230.6415 129.4358 14.15562468613361
ARIANE 40+ R/B          
1 23561U 95021B   26048.17000627  .00000336  00000+0  12116-3 0  9992
2 23561  98.4542 119.9263 0006597 193.5673 193.9105 14.39757111616294
SL-16 R/B               
1 23705U 95058B   26048.49250560 -.00000065  00000+0 -91671-5 0  9996
2 23705  71.0198 222.6569 0011582 160.3228 199.8344 14.15495969564990
SL-16 R/B               
1 24298U 96051B   26048.48615743  .00000085  00000+0  72576-4 0  9997
2 24298  70.7572 218.0008 0016843 176.7609 183.3623 14.12409947518799
ORBVIEW 2 (SEASTAR)     
1 24883U 97037A   26048.41327758  .00000291  00000+0  11740-3 0  9995
2 24883  98.8529 212.1917 0003144 112.4078 247.7440 14.35478709505563
